[{"OBJECT_NAME":"STARLINK-4346","OBJECT_ID":"2022-077AG","EPOCH":"2026-03-09T23:20:05.829216","MEAN_MOTION":15.20483722,"ECCENTRICITY":0.00045407,"INCLINATION":97.6378,"RA_OF_ASC_NODE":257.0949,"ARG_OF_PERICENTER":212.0804,"MEAN_ANOMALY":148.0155,"EPHEMERIS_TYPE":0,"CLASSIFICATION_TYPE":"U","NORAD_CAT_ID":53073,"ELEMENT_SET_NO":999,"REV_AT_EPOCH":20134,"BSTAR":0.00030178555,"MEAN_MOTION_DOT":6.523e-5,"MEAN_MOTION_DDOT":0},{"OBJECT_NAME":"GHGSAT-C12","OBJECT_ID":"2025-135B","EPOCH":"2026-03-09T21:42:54.844416","MEAN_MOTION":15.19558972,"ECCENTRICITY":0.0005838,"INCLINATION":97.4617,"RA_OF_ASC_NODE":184.7149,"ARG_OF_PERICENTER":147.3031,"MEAN_ANOMALY":212.8566,"EPHEMERIS_TYPE":0,"CLASSIFICATION_TYPE":"U","NORAD_CAT_ID":64529,"ELEMENT_SET_NO":999,"REV_AT_EPOCH":3974,"BSTAR":0.00022956142,"MEAN_MOTION_DOT":4.815e-5,"MEAN_MOTION_DDOT":0}]
